GLOBALSTAR M063         
1 26081U 00008A   25101.49439306 -.00000046  00000+0  54213-3 0  9990
2 26081  51.9951 287.2193 0004707 178.3101 205.4659 11.86168592149721
GLOBALSTAR M062         
1 26082U 00008B   25101.79657003 -.00000013  00000+0  61136-3 0  9996
2 26082  51.9847 291.0187 0006583 336.4711  36.5491 12.43463762150865
GLOBALSTAR M060         
1 26083U 00008C   25100.77028041 -.00000147  00000+0 -55571-3 0  9993
2 26083  52.0012 244.5046 0002652 358.0609 142.1944 12.17659687144154
GLOBALSTAR M064         
1 26084U 00008D   25101.11617203 -.00000081  00000+0  29387-4 0  9990
2 26084  52.0065  27.8289 0001186 307.9664  52.1061 11.88532289159239
GLOBALSTAR M065         
1 31571U 07020A   25101.15410139 -.00000069  00000+0  19249-3 0  9992
2 31571  51.9891  70.2924 0010278 157.0839 314.5448 12.62004631825242
GLOBALSTAR M069         
1 31573U 07020C   25100.31679307 -.00000070  00000+0  20573-3 0  9999
2 31573  51.9967  41.8131 0000994  44.2426 119.7183 12.42144105825739
GLOBALSTAR M072         
1 31574U 07020D   25100.67799668 -.00000121  00000+0 -50731-3 0  9999
2 31574  51.9920 171.6953 0001412 179.5147 345.1631 11.91647989823418
GLOBALSTAR M071         
1 31576U 07020F   25101.16726333 -.00000035  00000+0  55053-3 0  9990
2 31576  52.0070  58.6231 0000910 353.4249  18.8516 12.18252120825685
